NORAD_CAT_ID,OBJECT_NAME,OBJECT_TYPE,EPOCH,MEAN_MOTION,ECCENTRICITY,INCLINATION,RA_OF_ASC_NODE,ARG_OF_PERICENTER,MEAN_ANOMALY,BSTAR,MEAN_MOTION_DOT,MEAN_MOTION_DDOT,TLE_LINE0,TLE_LINE1,TLE_LINE2,SEMIMAJOR_AXIS,PERIOD,APOGEE,PERIGEE,DECAYED
53263.0,STARLINK-4130,PAYLOAD,2023-05-21 07:44:31,15.08849555,0.0001145,53.2173,108.1899,93.1785,266.9338,0.00010562,1.394e-05,0.0,0 STARLINK-4130,1 53263U 22086X   23141.32258404  .00001394  00000-0  10562-3 0  9990,2 53263  53.2173 108.1899 0001145  93.1785 266.9338 15.08849555 46391,6917.851,95.437,540.508,538.924,0.0
53263.0,STARLINK-4130,PAYLOAD,2023-05-21 22:03:01,15.08827985,9.11e-05,53.2176,105.514,99.4648,260.6447,-0.00012304,-2.245e-05,0.0,0 STARLINK-4130,1 53263U 22086X   23141.91876634 -.00002245  00000-0 -12304-3 0  9990,2 53263  53.2176 105.5140 0000911  99.4648 260.6447 15.08827985 46666,6917.917,95.438,540.412,539.152,0.0
53263.0,STARLINK-4130,PAYLOAD,2023-05-22 04:24:33,15.08832765,0.0001096,53.2174,104.3252,99.4081,260.7035,-7.0318e-05,-1.406e-05,0.0,0 STARLINK-4130,1 53263U 22086X   23142.18372353 -.00001406  00000-0 -70318-4 0  9997,2 53263  53.2174 104.3252 0001096  99.4081 260.7035 15.08832765 46522,6917.903,95.438,540.526,539.009,0.0
53263.0,STARLINK-4130,PAYLOAD,2023-05-22 07:35:19,15.08834325,0.0001152,53.2171,103.7303,99.5958,260.5165,-6.6681e-05,-1.349e-05,0.0,0 STARLINK-4130,1 53263U 22086X   23142.31620296 -.00001349  00000-0 -66681-4 0  9998,2 53263  53.2171 103.7303 0001152  99.5958 260.5165 15.08834325 46724,6917.898,95.438,540.56,538.966,0.0
53263.0,STARLINK-4130,PAYLOAD,2023-05-22 21:53:47,15.08841299,0.0001114,53.217,101.0544,101.9676,258.1441,-2.8748e-05,-7.45e-06,0.0,0 STARLINK-4130,1 53263U 22086X   23142.91235907 -.00000745  00000-0 -28748-4 0  9996,2 53263  53.2170 101.0544 0001114 101.9676 258.1441 15.08841299 46812,6917.876,95.437,540.512,538.971,0.0
53263.0,STARLINK-4130,PAYLOAD,2023-05-23 02:39:57,15.08844216,0.0001147,53.2172,100.1624,102.4884,257.6237,8.4882e-06,-1.53e-06,0.0,0 STARLINK-4130,1 53263U 22086X   23143.11107648 -.00000153  00000-0  84882-5 0  9993,2 53263  53.2172 100.1624 0001147 102.4884 257.6237 15.08844216 46668,6917.868,95.437,540.526,538.939,0.0
53263.0,STARLINK-4130,PAYLOAD,2023-05-23 07:26:06,15.08848717,0.0001074,53.2166,99.27,100.7512,259.3601,4.812e-05,4.78e-06,0.0,0 STARLINK-4130,1 53263U 22086X   23143.30979285  .00000478  00000-0  48120-4 0  9991,2 53263  53.2166  99.2700 0001074 100.7512 259.3601 15.08848717 46879,6917.854,95.437,540.462,538.976,0.0
53263.0,STARLINK-4130,PAYLOAD,2023-05-24 05:41:31,15.08832986,0.0001228,53.2172,95.1082,110.5002,249.6122,0.00015231,2.137e-05,0.0,0 STARLINK-4130,1 53263U 22086X   23144.23716659  .00002137  00000-0  15231-3 0  9998,2 53263  53.2172  95.1082 0001228 110.5002 249.6122 15.08832986 46835,6917.902,95.438,540.616,538.917,0.0
53263.0,STARLINK-4130,PAYLOAD,2023-05-26 03:47:42,15.08836928,0.0001098,53.2166,86.4834,98.7042,261.4074,4.5494e-05,4.36e-06,0.0,0 STARLINK-4130,1 53263U 22086X   23146.15812968  .00000436  00000-0  45494-4 0  9996,2 53263  53.2166  86.4834 0001098  98.7042 261.4074 15.08836928 47123,6917.89,95.438,540.514,538.995,0.0
53263.0,STARLINK-4130,PAYLOAD,2023-05-26 05:23:05,15.08837257,0.0001096,53.2166,86.186,98.6102,261.5015,4.6181e-05,4.47e-06,0.0,0 STARLINK-4130,1 53263U 22086X   23146.22436949  .00000447  00000-0  46181-4 0  9991,2 53263  53.2166  86.1860 0001096  98.6102 261.5015 15.08837257 47316,6917.889,95.438,540.512,538.996,0.0
53263.0,STARLINK-4130,PAYLOAD,2023-05-27 05:13:52,15.08842189,0.0001221,53.2176,81.7236,94.2729,265.8403,6.3702e-05,7.26e-06,0.0,0 STARLINK-4130,1 53263U 22086X   23147.21796716  .00000726  00000-0  63702-4 0  9990,2 53263  53.2176  81.7236 0001221  94.2729 265.8403 15.08842189 47286,6917.874,95.437,540.583,538.894,0.0
53263.0,STARLINK-4130,PAYLOAD,2023-05-27 13:10:48,15.08839516,0.000116,53.2174,80.2368,98.8337,261.2786,5.9993e-05,6.67e-06,0.0,0 STARLINK-4130,1 53263U 22086X   23147.54916866  .00000667  00000-0  59993-4 0  9997,2 53263  53.2174  80.2368 0001160  98.8337 261.2786 15.08839516 47511,6917.882,95.438,540.549,538.944,0.0
53263.0,STARLINK-4130,PAYLOAD,2023-05-28 05:04:39,15.08840812,0.000129,53.2181,77.2637,93.2531,266.8609,9.3062e-05,1.194e-05,0.0,0 STARLINK-4130,1 53263U 22086X   23148.21156836  .00001194  00000-0  93062-4 0  9996,2 53263  53.2181  77.2637 0001290  93.2531 266.8609 15.08840812 47610,6917.878,95.438,540.635,538.851,0.0
53263.0,STARLINK-4130,PAYLOAD,2023-05-29 01:44:39,15.08850866,0.0001257,53.2182,73.3983,92.1656,267.948,0.0001048,1.381e-05,0.0,0 STARLINK-4130,1 53263U 22086X   23149.07268022  .00001381  00000-0  10480-3 0  9992,2 53263  53.2182  73.3983 0001257  92.1656 267.9480 15.08850866 47564,6917.847,95.437,540.582,538.843,0.0
53263.0,STARLINK-4130,PAYLOAD,2023-05-29 19:13:55,15.08835771,0.0001089,53.2184,70.1283,85.6901,274.4216,1.5799e-06,-2.63e-06,0.0,0 STARLINK-4130,1 53263U 22086X   23149.80133313 -.00000263  00000-0  15799-5 0  9996,2 53263  53.2184  70.1283 0001089  85.6901 274.4216 15.08835771 47857,6917.893,95.438,540.512,539.005,0.0
53263.0,STARLINK-4130,PAYLOAD,2023-05-30 01:35:27,15.08836532,0.0001123,53.2184,68.9394,95.8943,264.2177,4.6284e-06,-2.14e-06,0.0,0 STARLINK-4130,1 53263U 22086X   23150.06629280 -.00000214  00000-0  46284-5 0  9998,2 53263  53.2184  68.9394 0001123  95.8943 264.2177 15.08836532 47717,6917.891,95.438,540.533,538.979,0.0
53263.0,STARLINK-4130,PAYLOAD,2023-05-30 22:15:28,15.08843389,0.0001064,53.2178,65.0746,100.5776,259.5336,-1.8862e-05,-5.88e-06,0.0,0 STARLINK-4130,1 53263U 22086X   23150.92741080 -.00000588  00000-0 -18862-4 0  9991,2 53263  53.2178  65.0746 0001064 100.5776 259.5336 15.08843389 48028,6917.87,95.437,540.471,538.999,0.0
53263.0,STARLINK-4130,PAYLOAD,2023-05-31 01:26:14,15.08846208,0.0001043,53.2174,64.4807,103.7662,256.3446,4.2845e-06,-2.2e-06,0.0,0 STARLINK-4130,1 53263U 22086X   23151.05988801 -.00000220  00000-0  42845-5 0  9991,2 53263  53.2174  64.4807 0001043 103.7662 256.3446 15.08846208 47862,6917.861,95.437,540.448,539.005,0.0
53263.0,STARLINK-4130,PAYLOAD,2023-05-31 22:06:15,15.08835047,0.0001086,53.2172,60.6154,111.8763,248.2345,9.5264e-05,1.228e-05,0.0,0 STARLINK-4130,1 53263U 22086X   23151.92101444  .00001228  00000-0  95264-4 0  9997,2 53263  53.2172  60.6154 0001086 111.8763 248.2345 15.08835047 48174,6917.896,95.438,540.512,539.009,0.0
53263.0,STARLINK-4130,PAYLOAD,2023-06-01 02:52:24,15.08841605,0.0001121,53.217,59.7237,113.6346,246.4764,0.00015185,2.13e-05,0.0,0 STARLINK-4130,1 53263U 22086X   23152.11972969  .00002130  00000-0  15185-3 0  9993,2 53263  53.2170  59.7237 0001121 113.6346 246.4764 15.08841605 48206,6917.875,95.437,540.516,538.965,0.0
53263.0,STARLINK-4130,PAYLOAD,2023-06-02 02:43:11,15.08847305,0.0001178,53.2174,55.2616,110.892,249.2198,9.2023e-05,1.177e-05,0.0,0 STARLINK-4130,1 53263U 22086X   23153.11332820  .00001177  00000-0  92023-4 0  9997,2 53263  53.2174  55.2616 0001178 110.8920 249.2198 15.08847305 48352,6917.858,95.437,540.538,538.908,0.0
53263.0,STARLINK-4130,PAYLOAD,2023-06-02 21:47:50,15.08837802,0.0001403,53.219,51.6873,131.1391,228.9723,-2.9978e-05,-7.65e-06,0.0,0 STARLINK-4130,1 53263U 22086X   23153.90821879 -.00000765  00000-0 -29978-4 0  9994,2 53263  53.2190  51.6873 0001403 131.1391 228.9723 15.08837802 48476,6917.887,95.438,540.723,538.782,0.0
53263.0,STARLINK-4130,PAYLOAD,2023-06-03 02:33:59,15.0883994,0.0001244,53.2192,50.796,108.6193,251.4934,2.2611e-06,-2.52e-06,0.0,0 STARLINK-4130,1 53263U 22086X   23154.10693809 -.00000252  00000-0  22611-5 0  9995,2 53263  53.2192  50.7960 0001244 108.6193 251.4934 15.08839940 48321,6917.881,95.438,540.606,538.885,0.0
53263.0,STARLINK-4130,PAYLOAD,2023-06-03 21:38:36,15.08846674,0.0001129,53.2183,47.2314,85.6838,274.4283,6.9951e-05,8.26e-06,0.0,0 STARLINK-4130,1 53263U 22086X   23154.90181343  .00000826  00000-0  69951-4 0  9991,2 53263  53.2183  47.2314 0001129  85.6838 274.4283 15.08846674 48624,6917.86,95.437,540.506,538.944,0.0
53263.0,STARLINK-4130,PAYLOAD,2023-06-03 23:13:59,15.08848812,0.0001122,53.2184,46.9333,87.5681,272.544,8.4145e-05,1.052e-05,0.0,0 STARLINK-4130,1 53263U 22086X   23154.96805170  .00001052  00000-0  84145-4 0  9992,2 53263  53.2184  46.9333 0001122  87.5681 272.5440 15.08848812 48453,6917.853,95.437,540.495,538.942,0.0
53263.0,STARLINK-4130,PAYLOAD,2023-06-04 11:57:07,15.08775477,0.0001496,53.2174,44.5566,102.7097,257.4063,0.0012058,0.00018921,0.0,0 STARLINK-4130,1 53263U 22086X   23155.49800458  .00018921  00000-0  12058-2 0  9990,2 53263  53.2174  44.5566 0001496 102.7097 257.4063 15.08775477 48717,6918.078,95.442,540.978,538.908,0.0
53263.0,STARLINK-4130,PAYLOAD,2023-06-04 18:18:37,15.08839184,0.0001183,53.2178,43.3675,81.7235,278.3891,9.4983e-05,1.224e-05,0.0,0 STARLINK-4130,1 53263U 22086X   23155.76293833  .00001224  00000-0  94983-4 0  9990,2 53263  53.2178  43.3675 0001183  81.7235 278.3891 15.08839184 48573,6917.883,95.438,540.566,538.929,0.0
53263.0,STARLINK-4130,PAYLOAD,2023-06-04 21:29:24,15.08839105,0.0001123,53.2179,42.7738,74.8358,285.2758,0.00013922,1.929e-05,0.0,0 STARLINK-4130,1 53263U 22086X   23155.89541699  .00001929  00000-0  13922-3 0  9995,2 53263  53.2179  42.7738 0001123  74.8358 285.2758 15.08839105 48774,6917.883,95.438,540.525,538.971,0.0
53263.0,STARLINK-4130,PAYLOAD,2023-06-05 02:15:32,15.08847592,0.0001111,53.218,41.8799,87.3885,272.7234,0.00016551,2.348e-05,0.0,0 STARLINK-4130,1 53263U 22086X   23156.09413102  .00002348  00000-0  16551-3 0  9992,2 53263  53.2180  41.8799 0001111  87.3885 272.7234 15.08847592 48627,6917.857,95.437,540.491,538.954,0.0
53263.0,STARLINK-4130,PAYLOAD,2023-06-05 11:47:52,15.08840077,0.0001236,53.217,40.0942,94.4162,265.6971,2.3429e-05,8.5e-07,0.0,0 STARLINK-4130,1 53263U 22086X   23156.49157692  .00000085  00000-0  23429-4 0  9994,2 53263  53.2170  40.0942 0001236  94.4162 265.6971 15.08840077 48868,6917.88,95.438,540.6,538.89,0.0
